{
  "type": "FeatureCollection",
  "features": [
    {
      "type": "Feature",
      "properties": {
        "norad_id": 66934,
        "name": "STARLINK-36153",
        "group": "last-30-days",
        "lat": -50.259420590444876,
        "lon": -88.9395375344881,
        "alt_km": 424.0202461196686,
        "timestamp": "2025-12-27T20:30:58.024095+00:00",
        "meta_object_name": "STARLINK-36153",
        "meta_object_id": "2025-286K",
        "meta_epoch": "2025-12-27T12:00:02.000160",
        "meta_mean_motion": 15.50941423,
        "meta_eccentricity": 0.0001493,
        "meta_inclination": 53.1594,
        "meta_ra_of_asc_node": 337.1503,
        "meta_arg_of_pericenter": 52.0401,
        "meta_mean_anomaly": 52.8605,
        "meta_ephemeris_type": 0,
        "meta_classification_type": "U",
        "meta_norad_cat_id": 66934,
        "meta_element_set_no": 999,
        "meta_rev_at_epoch": 436,
        "meta_bstar": -0.038808,
        "meta_mean_motion_dot": -0.02039336,
        "meta_mean_motion_ddot": 0,
        "tle_line1": "1 66934U 25286K   25361.50002315 -.02039336  00000+0 -38808-1 0  9999",
        "tle_line2": "2 66934  53.1594 337.1503 0001493  52.0401  52.8605 15.50941423  4361"
      },
      "geometry": {
        "type": "Point",
        "coordinates": [
          -88.9395375344881,
          -50.259420590444876
        ]
      }
    },
    {
      "type": "Feature",
      "properties": {
        "norad_id": 66935,
        "name": "STARLINK-36127",
        "group": "last-30-days",
        "lat": -49.561205283127165,
        "lon": -86.16380690654378,
        "alt_km": 424.0836301799336,
        "timestamp": "2025-12-27T20:30:58.024105+00:00",
        "meta_object_name": "STARLINK-36127",
        "meta_object_id": "2025-286L",
        "meta_epoch": "2025-12-27T12:00:02.000160",
        "meta_mean_motion": 15.50940811,
        "meta_eccentricity": 0.0001325,
        "meta_inclination": 53.1593,
        "meta_ra_of_asc_node": 337.1456,
        "meta_arg_of_pericenter": 71.4915,
        "meta_mean_anomaly": 35.3263,
        "meta_ephemeris_type": 0,
        "meta_classification_type": "U",
        "meta_norad_cat_id": 66935,
        "meta_element_set_no": 999,
        "meta_rev_at_epoch": 436,
        "meta_bstar": -0.038649,
        "meta_mean_motion_dot": -0.02031735,
        "meta_mean_motion_ddot": 0,
        "tle_line1": "1 66935U 25286L   25361.50002315 -.02031735  00000+0 -38649-1 0  9998",
        "tle_line2": "2 66935  53.1593 337.1456 0001325  71.4915  35.3263 15.50940811  4363"
      },
      "geometry": {
        "type": "Point",
        "coordinates": [
          -86.16380690654378,
          -49.561205283127165
        ]
      }
    },
    {
      "type": "Feature",
      "properties": {
        "norad_id": 66936,
        "name": "STARLINK-36160",
        "group": "last-30-days",
        "lat": -48.80202599627751,
        "lon": -83.48113563004786,
        "alt_km": 424.07564490938694,
        "timestamp": "2025-12-27T20:30:58.024115+00:00",
        "meta_object_name": "STARLINK-36160",
        "meta_object_id": "2025-286M",
        "meta_epoch": "2025-12-27T12:00:02.000160",
        "meta_mean_motion": 15.5093758,
        "meta_eccentricity": 0.000135,
        "meta_inclination": 53.1592,
        "meta_ra_of_asc_node": 337.1422,
        "meta_arg_of_pericenter": 73.5575,
        "meta_mean_anomaly": 35.1789,
        "meta_ephemeris_type": 0,
        "meta_classification_type": "U",
        "meta_norad_cat_id": 66936,
        "meta_element_set_no": 999,
        "meta_rev_at_epoch": 436,
        "meta_bstar": -0.03858,
        "meta_mean_motion_dot": -0.02028285,
        "meta_mean_motion_ddot": 0,
        "tle_line1": "1 66936U 25286M   25361.50002315 -.02028285  00000+0 -38580-1 0  9999",
        "tle_line2": "2 66936  53.1592 337.1422 0001350  73.5575  35.1789 15.50937580  4369"
      },
      "geometry": {
        "type": "Point",
        "coordinates": [
          -83.48113563004786,
          -48.80202599627751
        ]
      }
    },
    {
      "type": "Feature",
      "properties": {
        "norad_id": 66937,
        "name": "STARLINK-36165",
        "group": "last-30-days",
        "lat": -47.98190942983295,
        "lon": -80.88063830240927,
        "alt_km": 423.93039599473286,
        "timestamp": "2025-12-27T20:30:58.024138+00:00",
        "meta_object_name": "STARLINK-36165",
        "meta_object_id": "2025-286N",
        "meta_epoch": "2025-12-27T12:00:02.000160",
        "meta_mean_motion": 15.50940869,
        "meta_eccentricity": 0.0001222,
        "meta_inclination": 53.1593,
        "meta_ra_of_asc_node": 337.1379,
        "meta_arg_of_pericenter": 70.506,
        "meta_mean_anomaly": 40.1455,
        "meta_ephemeris_type": 0,
        "meta_classification_type": "U",
        "meta_norad_cat_id": 66937,
        "meta_element_set_no": 999,
        "meta_rev_at_epoch": 436,
        "meta_bstar": -0.038641,
        "meta_mean_motion_dot": -0.02031308,
        "meta_mean_motion_ddot": 0,
        "tle_line1": "1 66937U 25286N   25361.50002315 -.02031308  00000+0 -38641-1 0  9998",
        "tle_line2": "2 66937  53.1593 337.1379 0001222  70.5060  40.1455 15.50940869  4366"
      },
      "geometry": {
        "type": "Point",
        "coordinates": [
          -80.88063830240927,
          -47.98190942983295
        ]
      }
    },
    {
      "type": "Feature",
      "properties": {
        "norad_id": 66938,
        "name": "STARLINK-36155",
        "group": "last-30-days",
        "lat": -47.10604963952375,
        "lon": -78.36824037977956,
        "alt_km": 423.89884364248155,
        "timestamp": "2025-12-27T20:30:58.024152+00:00",
        "meta_object_name": "STARLINK-36155",
        "meta_object_id": "2025-286P",
        "meta_epoch": "2025-12-27T12:00:02.000160",
        "meta_mean_motion": 15.50939437,
        "meta_eccentricity": 0.0001295,
        "meta_inclination": 53.1594,
        "meta_ra_of_asc_node": 337.1332,
        "meta_arg_of_pericenter": 68.3414,
        "meta_mean_anomaly": 44.2268,
        "meta_ephemeris_type": 0,
        "meta_classification_type": "U",
        "meta_norad_cat_id": 66938,
        "meta_element_set_no": 999,
        "meta_rev_at_epoch": 436,
        "meta_bstar": -0.038596,
        "meta_mean_motion_dot": -0.02029115,
        "meta_mean_motion_ddot": 0,
        "tle_line1": "1 66938U 25286P   25361.50002315 -.02029115  00000+0 -38596-1 0  9991",
        "tle_line2": "2 66938  53.1594 337.1332 0001295  68.3414  44.2268 15.50939437  4361"
      },
      "geometry": {
        "type": "Point",
        "coordinates": [
          -78.36824037977956,
          -47.10604963952375
        ]
      }
    },
    {
      "type": "Feature",
      "properties": {
        "norad_id": 66939,
        "name": "STARLINK-36154",
        "group": "last-30-days",
        "lat": -45.1954839844792,
        "lon": -73.58765444247221,
        "alt_km": 423.88892855774884,
        "timestamp": "2025-12-27T20:30:58.024164+00:00",
        "meta_object_name": "STARLINK-36154",
        "meta_object_id": "2025-286Q",
        "meta_epoch": "2025-12-27T12:00:02.000160",
        "meta_mean_motion": 15.50940152,
        "meta_eccentricity": 0.0001352,
        "meta_inclination": 53.1595,
        "meta_ra_of_asc_node": 337.1253,
        "meta_arg_of_pericenter": 74.694,
        "meta_mean_anomaly": 41.7086,
        "meta_ephemeris_type": 0,
        "meta_classification_type": "U",
        "meta_norad_cat_id": 66939,
        "meta_element_set_no": 999,
        "meta_rev_at_epoch": 436,
        "meta_bstar": -0.038658,
        "meta_mean_motion_dot": -0.02032106,
        "meta_mean_motion_ddot": 0,
        "tle_line1": "1 66939U 25286Q   25361.50002315 -.02032106  00000+0 -38658-1 0  9995",
        "tle_line2": "2 66939  53.1595 337.1253 0001352  74.6940  41.7086 15.50940152  4369"
      },
      "geometry": {
        "type": "Point",
        "coordinates": [
          -73.58765444247221,
          -45.1954839844792
        ]
      }
    },
    {
      "type": "Feature",
      "properties": {
        "norad_id": 66940,
        "name": "STARLINK-36121",
        "group": "last-30-days",
        "lat": -44.17050042139268,
        "lon": -71.32423328040264,
        "alt_km": 423.88632605233215,
        "timestamp": "2025-12-27T20:30:58.024174+00:00",
        "meta_object_name": "STARLINK-36121",
        "meta_object_id": "2025-286R",
        "meta_epoch": "2025-12-27T12:00:02.000160",
        "meta_mean_motion": 15.51053459,
        "meta_eccentricity": 0.0001868,
        "meta_inclination": 53.1597,
        "meta_ra_of_asc_node": 337.1214,
        "meta_arg_of_pericenter": 49.3627,
        "meta_mean_anomaly": 68.9389,
        "meta_ephemeris_type": 0,
        "meta_classification_type": "U",
        "meta_norad_cat_id": 66940,
        "meta_element_set_no": 999,
        "meta_rev_at_epoch": 436,
        "meta_bstar": -0.043206,
        "meta_mean_motion_dot": -0.02251045,
        "meta_mean_motion_ddot": 0,
        "tle_line1": "1 66940U 25286R   25361.50002315 -.02251045  00000+0 -43206-1 0  9997",
        "tle_line2": "2 66940  53.1597 337.1214 0001868  49.3627  68.9389 15.51053459  4366"
      },
      "geometry": {
        "type": "Point",
        "coordinates": [
          -71.32423328040264,
          -44.17050042139268
        ]
      }
    }
  ]
}